{
  "type": "FeatureCollection",
  "features": [
    {
      "type": "Feature",
      "properties": {
        "norad_id": 36036,
        "name": "SMOS",
        "group": "resource",
        "lat": 81.46421464608636,
        "lon": 87.06400871258847,
        "alt_km": 751.119272768824,
        "timestamp": "2025-12-09T11:33:54.457125+00:00",
        "meta_object_name": "SMOS",
        "meta_object_id": "2009-059A",
        "meta_epoch": "2025-12-09T02:48:53.559648",
        "meta_mean_motion": 14.39736041,
        "meta_eccentricity": 0.000111,
        "meta_inclination": 98.4383,
        "meta_ra_of_asc_node": 168.2193,
        "meta_arg_of_pericenter": 84.3146,
        "meta_mean_anomaly": 275.8169,
        "meta_ephemeris_type": 0,
        "meta_classification_type": "U",
        "meta_norad_cat_id": 36036,
        "meta_element_set_no": 999,
        "meta_rev_at_epoch": 84610,
        "meta_bstar": 0.00020332,
        "meta_mean_motion_dot": 5.93e-06,
        "meta_mean_motion_ddot": 0,
        "tle_line1": "1 36036U 09059A   25343.11728657  .00000593  00000+0  20332-3 0  9994",
        "tle_line2": "2 36036  98.4383 168.2193 0001110  84.3146 275.8169 14.39736041846109"
      },
      "geometry": {
        "type": "Point",
        "coordinates": [
          87.06400871258847,
          81.46421464608636
        ]
      }
    },
    {
      "type": "Feature",
      "properties": {
        "norad_id": 36110,
        "name": "YAOGAN-7",
        "group": "resource",
        "lat": -8.640434441419268,
        "lon": 44.021182938071256,
        "alt_km": 644.4887552117871,
        "timestamp": "2025-12-09T11:33:54.457136+00:00",
        "meta_object_name": "YAOGAN-7",
        "meta_object_id": "2009-069A",
        "meta_epoch": "2025-12-09T04:12:41.641344",
        "meta_mean_motion": 14.7772361,
        "meta_eccentricity": 0.0023481,
        "meta_inclination": 98.0303,
        "meta_ra_of_asc_node": 224.9452,
        "meta_arg_of_pericenter": 293.4316,
        "meta_mean_anomaly": 66.4425,
        "meta_ephemeris_type": 0,
        "meta_classification_type": "U",
        "meta_norad_cat_id": 36110,
        "meta_element_set_no": 999,
        "meta_rev_at_epoch": 86156,
        "meta_bstar": 0.00015296,
        "meta_mean_motion_dot": 1.048e-05,
        "meta_mean_motion_ddot": 0,
        "tle_line1": "1 36110U 09069A   25343.17548196  .00001048  00000+0  15296-3 0  9991",
        "tle_line2": "2 36110  98.0303 224.9452 0023481 293.4316  66.4425 14.77723610861561"
      },
      "geometry": {
        "type": "Point",
        "coordinates": [
          44.021182938071256,
          -8.640434441419268
        ]
      }
    },
    {
      "type": "Feature",
      "properties": {
        "norad_id": 36605,
        "name": "TANDEM-X",
        "group": "resource",
        "lat": -49.86151535751674,
        "lon": -2.1673356537242707,
        "alt_km": 516.3416186476352,
        "timestamp": "2025-12-09T11:33:54.457148+00:00",
        "meta_object_name": "TANDEM-X",
        "meta_object_id": "2010-030A",
        "meta_epoch": "2025-12-08T13:39:18.929376",
        "meta_mean_motion": 15.19159019,
        "meta_eccentricity": 0.0002067,
        "meta_inclination": 97.4453,
        "meta_ra_of_asc_node": 348.0112,
        "meta_arg_of_pericenter": 89.3333,
        "meta_mean_anomaly": 270.8138,
        "meta_ephemeris_type": 0,
        "meta_classification_type": "U",
        "meta_norad_cat_id": 36605,
        "meta_element_set_no": 999,
        "meta_rev_at_epoch": 85770,
        "meta_bstar": 0.00014235,
        "meta_mean_motion_dot": 2.924e-05,
        "meta_mean_motion_ddot": 0,
        "tle_line1": "1 36605U 10030A   25342.56896909  .00002924  00000+0  14235-3 0  9996",
        "tle_line2": "2 36605  97.4453 348.0112 0002067  89.3333 270.8138 15.19159019857704"
      },
      "geometry": {
        "type": "Point",
        "coordinates": [
          -2.1673356537242707,
          -49.86151535751674
        ]
      }
    },
    {
      "type": "Feature",
      "properties": {
        "norad_id": 36795,
        "name": "CARTOSAT-2B",
        "group": "resource",
        "lat": 73.69850353287202,
        "lon": -119.48889507624455,
        "alt_km": 617.4550180663455,
        "timestamp": "2025-12-09T11:33:54.457158+00:00",
        "meta_object_name": "CARTOSAT-2B",
        "meta_object_id": "2010-035A",
        "meta_epoch": "2025-12-09T04:36:00.332928",
        "meta_mean_motion": 14.78782201,
        "meta_eccentricity": 0.0012951,
        "meta_inclination": 97.7853,
        "meta_ra_of_asc_node": 32.3374,
        "meta_arg_of_pericenter": 87.8656,
        "meta_mean_anomaly": 272.4039,
        "meta_ephemeris_type": 0,
        "meta_classification_type": "U",
        "meta_norad_cat_id": 36795,
        "meta_element_set_no": 999,
        "meta_rev_at_epoch": 83177,
        "meta_bstar": 0.00017487,
        "meta_mean_motion_dot": 1.237e-05,
        "meta_mean_motion_ddot": 0,
        "tle_line1": "1 36795U 10035A   25343.19167052  .00001237  00000+0  17487-3 0  9999",
        "tle_line2": "2 36795  97.7853  32.3374 0012951  87.8656 272.4039 14.78782201831774"
      },
      "geometry": {
        "type": "Point",
        "coordinates": [
          -119.48889507624455,
          73.69850353287202
        ]
      }
    },
    {
      "type": "Feature",
      "properties": {
        "norad_id": 36834,
        "name": "YAOGAN-10",
        "group": "resource",
        "lat": 62.797560113772775,
        "lon": -160.97153043275867,
        "alt_km": 607.9741287119296,
        "timestamp": "2025-12-09T11:33:54.457168+00:00",
        "meta_object_name": "YAOGAN-10",
        "meta_object_id": "2010-038A",
        "meta_epoch": "2025-12-09T04:58:10.841952",
        "meta_mean_motion": 14.84584797,
        "meta_eccentricity": 0.0001401,
        "meta_inclination": 97.9139,
        "meta_ra_of_asc_node": 3.0536,
        "meta_arg_of_pericenter": 81.4213,
        "meta_mean_anomaly": 6.8014,
        "meta_ephemeris_type": 0,
        "meta_classification_type": "U",
        "meta_norad_cat_id": 36834,
        "meta_element_set_no": 999,
        "meta_rev_at_epoch": 82901,
        "meta_bstar": 0.00028609,
        "meta_mean_motion_dot": 2.362e-05,
        "meta_mean_motion_ddot": 0,
        "tle_line1": "1 36834U 10038A   25343.20706993  .00002362  00000+0  28609-3 0  9999",
        "tle_line2": "2 36834  97.9139   3.0536 0001401  81.4213   6.8014 14.84584797829012"
      },
      "geometry": {
        "type": "Point",
        "coordinates": [
          -160.97153043275867,
          62.797560113772775
        ]
      }
    },
    {
      "type": "Feature",
      "properties": {
        "norad_id": 37216,
        "name": "COSMO-SKYMED 4",
        "group": "resource",
        "lat": 66.3887923889819,
        "lon": 146.3810394101923,
        "alt_km": 615.0837645927213,
        "timestamp": "2025-12-09T11:33:54.457178+00:00",
        "meta_object_name": "COSMO-SKYMED 4",
        "meta_object_id": "2010-060A",
        "meta_epoch": "2025-12-09T04:46:47.955360",
        "meta_mean_motion": 14.82161696,
        "meta_eccentricity": 0.0001386,
        "meta_inclination": 97.8802,
        "meta_ra_of_asc_node": 164.5753,
        "meta_arg_of_pericenter": 78.4136,
        "meta_mean_anomaly": 281.7233,
        "meta_ephemeris_type": 0,
        "meta_classification_type": "U",
        "meta_norad_cat_id": 37216,
        "meta_element_set_no": 999,
        "meta_rev_at_epoch": 81642,
        "meta_bstar": 0.00013496,
        "meta_mean_motion_dot": 1.023e-05,
        "meta_mean_motion_ddot": 0,
        "tle_line1": "1 37216U 10060A   25343.19916615  .00001023  00000+0  13496-3 0  9992",
        "tle_line2": "2 37216  97.8802 164.5753 0001386  78.4136 281.7233 14.82161696816424"
      },
      "geometry": {
        "type": "Point",
        "coordinates": [
          146.3810394101923,
          66.3887923889819
        ]
      }
    },
    {
      "type": "Feature",
      "properties": {
        "norad_id": 37387,
        "name": "RESOURCESAT-2",
        "group": "resource",
        "lat": 21.40512828333471,
        "lon": 43.57171063930952,
        "alt_km": 815.598017946214,
        "timestamp": "2025-12-09T11:33:54.457189+00:00",
        "meta_object_name": "RESOURCESAT-2",
        "meta_object_id": "2011-015A",
        "meta_epoch": "2025-12-09T04:42:24.539040",
        "meta_mean_motion": 14.21594911,
        "meta_eccentricity": 0.0006589,
        "meta_inclination": 98.7881,
        "meta_ra_of_asc_node": 46.7638,
        "meta_arg_of_pericenter": 51.7801,
        "meta_mean_anomaly": 308.3969,
        "meta_ephemeris_type": 0,
        "meta_classification_type": "U",
        "meta_norad_cat_id": 37387,
        "meta_element_set_no": 999,
        "meta_rev_at_epoch": 75918,
        "meta_bstar": 0.00012605,
        "meta_mean_motion_dot": 2.32e-06,
        "meta_mean_motion_ddot": 0,
        "tle_line1": "1 37387U 11015A   25343.19611735  .00000232  00000+0  12605-3 0  9999",
        "tle_line2": "2 37387  98.7881  46.7638 0006589  51.7801 308.3969 14.21594911759180"
      },
      "geometry": {
        "type": "Point",
        "coordinates": [
          43.57171063930952,
          21.40512828333471
        ]
      }
    }
  ]
}